[{"OBJECT_NAME":"TIANMU-1 09","OBJECT_ID":"2023-101C","EPOCH":"2026-03-09T22:17:34.703232","MEAN_MOTION":15.29080822,"ECCENTRICITY":0.00049013,"INCLINATION":97.267,"RA_OF_ASC_NODE":121.1263,"ARG_OF_PERICENTER":139.4293,"MEAN_ANOMALY":220.7314,"EPHEMERIS_TYPE":0,"CLASSIFICATION_TYPE":"U","NORAD_CAT_ID":57401,"ELEMENT_SET_NO":999,"REV_AT_EPOCH":14647,"BSTAR":0.00030540035,"MEAN_MOTION_DOT":8.553e-5,"MEAN_MOTION_DDOT":0},{"OBJECT_NAME":"STARLINK-32613","OBJECT_ID":"2024-210M","EPOCH":"2026-03-09T22:00:01.999584","MEAN_MOTION":15.27577743,"ECCENTRICITY":0.00014453,"INCLINATION":42.9998,"RA_OF_ASC_NODE":178.8665,"ARG_OF_PERICENTER":269.8788,"MEAN_ANOMALY":351.0878,"EPHEMERIS_TYPE":0,"CLASSIFICATION_TYPE":"U","NORAD_CAT_ID":61970,"ELEMENT_SET_NO":999,"REV_AT_EPOCH":585,"BSTAR":0.00016239738,"MEAN_MOTION_DOT":4.209e-5,"MEAN_MOTION_DDOT":0}]
